{
  "type": "FeatureCollection",
  "features": [
    {
      "type": "Feature",
      "properties": {
        "norad_id": 33860,
        "name": "IRIDIUM 33 DEB",
        "group": "iridium-33-debris",
        "lat": 11.679595645328883,
        "lon": 30.62315908431167,
        "alt_km": 665.471019527823,
        "timestamp": "2025-12-06T18:50:10.554099+00:00",
        "meta_object_name": "IRIDIUM 33 DEB",
        "meta_object_id": "1997-051AD",
        "meta_epoch": "2025-12-06T02:32:46.259808",
        "meta_mean_motion": 14.67235819,
        "meta_eccentricity": 0.00083266,
        "meta_inclination": 86.3843,
        "meta_ra_of_asc_node": 30.1744,
        "meta_arg_of_pericenter": 19.7152,
        "meta_mean_anomaly": 9.2221,
        "meta_ephemeris_type": 0,
        "meta_classification_type": "U",
        "meta_norad_cat_id": 33860,
        "meta_element_set_no": 999,
        "meta_rev_at_epoch": 88625,
        "meta_bstar": 0.0019497463,
        "meta_mean_motion_dot": 0.00011015,
        "meta_mean_motion_ddot": 0,
        "tle_line1": "1 33860U 97051AD  25340.10609097  .00011015  00000+0  19497-2 0  9997",
        "tle_line2": "2 33860  86.3843  30.1744 0008326  19.7152   9.2221 14.67235819886258"
      },
      "geometry": {
        "type": "Point",
        "coordinates": [
          30.62315908431167,
          11.679595645328883
        ]
      }
    },
    {
      "type": "Feature",
      "properties": {
        "norad_id": 33862,
        "name": "IRIDIUM 33 DEB",
        "group": "iridium-33-debris",
        "lat": 1.5987473270092658,
        "lon": 40.256587320389634,
        "alt_km": 664.0494865537548,
        "timestamp": "2025-12-06T18:50:10.554110+00:00",
        "meta_object_name": "IRIDIUM 33 DEB",
        "meta_object_id": "1997-051AF",
        "meta_epoch": "2025-12-06T04:14:00.470976",
        "meta_mean_motion": 14.6931371,
        "meta_eccentricity": 0.00538127,
        "meta_inclination": 86.4094,
        "meta_ra_of_asc_node": 40.4243,
        "meta_arg_of_pericenter": 91.0344,
        "meta_mean_anomaly": 294.9729,
        "meta_ephemeris_type": 0,
        "meta_classification_type": "U",
        "meta_norad_cat_id": 33862,
        "meta_element_set_no": 999,
        "meta_rev_at_epoch": 88727,
        "meta_bstar": 0.0022641347,
        "meta_mean_motion_dot": 0.00013701,
        "meta_mean_motion_ddot": 0,
        "tle_line1": "1 33862U 97051AF  25340.17639434  .00013701  00000+0  22641-2 0  9993",
        "tle_line2": "2 33862  86.4094  40.4243 0053812  91.0344 294.9729 14.69313710887271"
      },
      "geometry": {
        "type": "Point",
        "coordinates": [
          40.256587320389634,
          1.5987473270092658
        ]
      }
    },
    {
      "type": "Feature",
      "properties": {
        "norad_id": 33866,
        "name": "IRIDIUM 33 DEB",
        "group": "iridium-33-debris",
        "lat": -66.11312521635438,
        "lon": 87.15402145817988,
        "alt_km": 846.6173257148803,
        "timestamp": "2025-12-06T18:50:10.554121+00:00",
        "meta_object_name": "IRIDIUM 33 DEB",
        "meta_object_id": "1997-051AK",
        "meta_epoch": "2025-12-06T07:30:53.815968",
        "meta_mean_motion": 14.2524046,
        "meta_eccentricity": 0.01139468,
        "meta_inclination": 86.3004,
        "meta_ra_of_asc_node": 95.7544,
        "meta_arg_of_pericenter": 181.867,
        "meta_mean_anomaly": 211.7701,
        "meta_ephemeris_type": 0,
        "meta_classification_type": "U",
        "meta_norad_cat_id": 33866,
        "meta_element_set_no": 999,
        "meta_rev_at_epoch": 86719,
        "meta_bstar": 0.0014070544,
        "meta_mean_motion_dot": 3.558e-05,
        "meta_mean_motion_ddot": 0,
        "tle_line1": "1 33866U 97051AK  25340.31312287  .00003558  00000+0  14071-2 0  9994",
        "tle_line2": "2 33866  86.3004  95.7544 0113946 181.8670 211.7701 14.25240460867196"
      },
      "geometry": {
        "type": "Point",
        "coordinates": [
          87.15402145817988,
          -66.11312521635438
        ]
      }
    },
    {
      "type": "Feature",
      "properties": {
        "norad_id": 33867,
        "name": "IRIDIUM 33 DEB",
        "group": "iridium-33-debris",
        "lat": -85.56019111518984,
        "lon": -131.80066192546994,
        "alt_km": 408.1322013837498,
        "timestamp": "2025-12-06T18:50:10.554132+00:00",
        "meta_object_name": "IRIDIUM 33 DEB",
        "meta_object_id": "1997-051AL",
        "meta_epoch": "2025-12-06T06:54:06.113664",
        "meta_mean_motion": 15.57665261,
        "meta_eccentricity": 0.00123399,
        "meta_inclination": 86.3623,
        "meta_ra_of_asc_node": 353.4303,
        "meta_arg_of_pericenter": 93.8266,
        "meta_mean_anomaly": 266.4409,
        "meta_ephemeris_type": 0,
        "meta_classification_type": "U",
        "meta_norad_cat_id": 33867,
        "meta_element_set_no": 999,
        "meta_rev_at_epoch": 89410,
        "meta_bstar": 0.0094799239,
        "meta_mean_motion_dot": 0.00759133,
        "meta_mean_motion_ddot": 0,
        "tle_line1": "1 33867U 97051AL  25340.28757076  .00759133  00000+0  94799-2 0  9992",
        "tle_line2": "2 33867  86.3623 353.4303 0012339  93.8266 266.4409 15.57665261894107"
      },
      "geometry": {
        "type": "Point",
        "coordinates": [
          -131.80066192546994,
          -85.56019111518984
        ]
      }
    },
    {
      "type": "Feature",
      "properties": {
        "norad_id": 33870,
        "name": "IRIDIUM 33 DEB",
        "group": "iridium-33-debris",
        "lat": -48.77399382757207,
        "lon": 56.66532057955085,
        "alt_km": 752.1682200621262,
        "timestamp": "2025-12-06T18:50:10.554143+00:00",
        "meta_object_name": "IRIDIUM 33 DEB",
        "meta_object_id": "1997-051AP",
        "meta_epoch": "2025-12-06T04:13:53.353344",
        "meta_mean_motion": 14.45794966,
        "meta_eccentricity": 0.00207754,
        "meta_inclination": 86.3755,
        "meta_ra_of_asc_node": 61.0743,
        "meta_arg_of_pericenter": 199.8984,
        "meta_mean_anomaly": 185.7515,
        "meta_ephemeris_type": 0,
        "meta_classification_type": "U",
        "meta_norad_cat_id": 33870,
        "meta_element_set_no": 999,
        "meta_rev_at_epoch": 88042,
        "meta_bstar": 0.0014452695,
        "meta_mean_motion_dot": 5.158e-05,
        "meta_mean_motion_ddot": 0,
        "tle_line1": "1 33870U 97051AP  25340.17631196  .00005158  00000+0  14453-2 0  9998",
        "tle_line2": "2 33870  86.3755  61.0743 0020775 199.8984 185.7515 14.45794966880426"
      },
      "geometry": {
        "type": "Point",
        "coordinates": [
          56.66532057955085,
          -48.77399382757207
        ]
      }
    },
    {
      "type": "Feature",
      "properties": {
        "norad_id": 33881,
        "name": "IRIDIUM 33 DEB",
        "group": "iridium-33-debris",
        "lat": -48.31816777987468,
        "lon": 105.26015920429874,
        "alt_km": 731.690500235547,
        "timestamp": "2025-12-06T18:50:10.554154+00:00",
        "meta_object_name": "IRIDIUM 33 DEB",
        "meta_object_id": "1997-051BA",
        "meta_epoch": "2025-12-05T20:31:44.051808",
        "meta_mean_motion": 14.56380103,
        "meta_eccentricity": 0.006125,
        "meta_inclination": 86.3871,
        "meta_ra_of_asc_node": 109.733,
        "meta_arg_of_pericenter": 197.0715,
        "meta_mean_anomaly": 283.839,
        "meta_ephemeris_type": 0,
        "meta_classification_type": "U",
        "meta_norad_cat_id": 33881,
        "meta_element_set_no": 999,
        "meta_rev_at_epoch": 87400,
        "meta_bstar": 0.0035632862,
        "meta_mean_motion_dot": 0.00016254,
        "meta_mean_motion_ddot": 0,
        "tle_line1": "1 33881U 97051BA  25339.85537097  .00016254  00000+0  35633-2 0  9990",
        "tle_line2": "2 33881  86.3871 109.7330 0061250 197.0715 283.8390 14.56380103874008"
      },
      "geometry": {
        "type": "Point",
        "coordinates": [
          105.26015920429874,
          -48.31816777987468
        ]
      }
    },
    {
      "type": "Feature",
      "properties": {
        "norad_id": 33884,
        "name": "IRIDIUM 33 DEB",
        "group": "iridium-33-debris",
        "lat": 8.5440364894925,
        "lon": -168.04034489814848,
        "alt_km": 647.147143486749,
        "timestamp": "2025-12-06T18:50:10.554164+00:00",
        "meta_object_name": "IRIDIUM 33 DEB",
        "meta_object_id": "1997-051BD",
        "meta_epoch": "2025-12-06T08:22:17.400864",
        "meta_mean_motion": 14.77245967,
        "meta_eccentricity": 0.00103461,
        "meta_inclination": 86.3691,
        "meta_ra_of_asc_node": 12.703,
        "meta_arg_of_pericenter": 347.5842,
        "meta_mean_anomaly": 26.4048,
        "meta_ephemeris_type": 0,
        "meta_classification_type": "U",
        "meta_norad_cat_id": 33884,
        "meta_element_set_no": 999,
        "meta_rev_at_epoch": 88753,
        "meta_bstar": 0.0022939215,
        "meta_mean_motion_dot": 0.00016315,
        "meta_mean_motion_ddot": 0,
        "tle_line1": "1 33884U 97051BD  25340.34881251  .00016315  00000+0  22939-2 0  9996",
        "tle_line2": "2 33884  86.3691  12.7030 0010346 347.5842  26.4048 14.77245967887538"
      },
      "geometry": {
        "type": "Point",
        "coordinates": [
          -168.04034489814848,
          8.5440364894925
        ]
      }
    }
  ]
}